*******************************************************************************
Ephemeris / WWW_USER Fri Mar  7 09:48:08 2025 Pasadena, USA      / Horizons    
*******************************************************************************
Target body name: Pluto (999)                     {source: plu060_merged}
Center body name: Earth (399)                     {source: DE441}
Center-site name: Mauna Kea
*******************************************************************************
Start time      : A.D. 2018-Nov-23 03:51:00.0000 UT      
Stop  time      : A.D. 2018-Nov-23 16:25:00.0000 UT      
Step-size       : 1 minutes
*******************************************************************************
Target pole/equ : IAU_PLUTO                       {East-longitude positive}
Target radii    : 1188.3, 1188.3, 1188.3 km       {Equator_a, b, pole_c}       
Center geodetic : 204.5278, 19.8260847, 4.21024   {E-lon(deg),Lat(deg),Alt(km)}
Center cylindric: 204.5278, 6006.35451, 2151.0229 {E-lon(deg),Dxy(km),Dz(km)}
Center pole/equ : ITRF93                          {East-longitude positive}
Center radii    : 6378.137, 6378.137, 6356.752 km {Equator_a, b, pole_c}       
Target primary  : Sun
Vis. interferer : MOON (R_eq= 1737.400) km        {source: DE441}
Rel. light bend : Sun                             {source: plu060_merged}
Rel. lght bnd GM: 1.3271E+11 km^3/s^2                                          
Atmos refraction: NO (AIRLESS)
RA format       : HMS
Time format     : CAL 
Calendar mode   : Mixed Julian/Gregorian
RTS-only print  : NO       
EOP file        : eop.250306.p250602                                           
EOP coverage    : DATA-BASED 1962-JAN-20 TO 2025-MAR-06. PREDICTS-> 2025-JUN-01
Units conversion: 1 au= 149597870.700 km, c= 299792.458 km/s, 1 day= 86400.0 s 
Table cut-offs 1: Elevation (-90.0deg=NO ),Airmass (>38.000=NO), Daylight (YES)
Table cut-offs 2: Solar elongation (  0.0,180.0=NO ),Local Hour Angle( 0.0=NO )
Table cut-offs 3: RA/DEC angular rate (     0.0=NO )                           
*******************************************************************************
 Date__(UT)__HR:MN     R.A._________(ICRF)_________DEC
******************************************************
$$SOE
 2018-Nov-23 13:15  m  19 23 07.283029 -22 06 34.04891
 2018-Nov-23 13:16  m  19 23 07.287516 -22 06 34.04394
 2018-Nov-23 13:17  m  19 23 07.292003 -22 06 34.03896
 2018-Nov-23 13:18  m  19 23 07.296491 -22 06 34.03399
 2018-Nov-23 13:19  m  19 23 07.300978 -22 06 34.02903
 2018-Nov-23 13:20  m  19 23 07.305465 -22 06 34.02406
 2018-Nov-23 13:21  m  19 23 07.309952 -22 06 34.01909
 2018-Nov-23 13:22  m  19 23 07.314440 -22 06 34.01413
 2018-Nov-23 13:23  m  19 23 07.318927 -22 06 34.00917
 2018-Nov-23 13:24  m  19 23 07.323415 -22 06 34.00421
 2018-Nov-23 13:25  m  19 23 07.327902 -22 06 33.99925
 2018-Nov-23 13:26  m  19 23 07.332390 -22 06 33.99429
 2018-Nov-23 13:27  m  19 23 07.336878 -22 06 33.98933
 2018-Nov-23 13:28  m  19 23 07.341365 -22 06 33.98438
 2018-Nov-23 13:29  m  19 23 07.345853 -22 06 33.97943
 2018-Nov-23 13:30  m  19 23 07.350341 -22 06 33.97448
 2018-Nov-23 13:31  m  19 23 07.354829 -22 06 33.96953
 2018-Nov-23 13:32  m  19 23 07.359317 -22 06 33.96458
 2018-Nov-23 13:33  m  19 23 07.363805 -22 06 33.95963
 2018-Nov-23 13:34  m  19 23 07.368293 -22 06 33.95469
 2018-Nov-23 13:35  m  19 23 07.372781 -22 06 33.94974
 2018-Nov-23 13:36  m  19 23 07.377269 -22 06 33.94480
 2018-Nov-23 13:37  m  19 23 07.381758 -22 06 33.93986
 2018-Nov-23 13:38  m  19 23 07.386246 -22 06 33.93493
 2018-Nov-23 13:39  m  19 23 07.390734 -22 06 33.92999
 2018-Nov-23 13:40  m  19 23 07.395222 -22 06 33.92505
 2018-Nov-23 13:41  m  19 23 07.399711 -22 06 33.92012
 2018-Nov-23 13:42  m  19 23 07.404199 -22 06 33.91519
 2018-Nov-23 13:43  m  19 23 07.408688 -22 06 33.91026
 2018-Nov-23 13:44  m  19 23 07.413176 -22 06 33.90533
 2018-Nov-23 13:45  m  19 23 07.417665 -22 06 33.90040
 2018-Nov-23 13:46  m  19 23 07.422153 -22 06 33.89548
 2018-Nov-23 13:47  m  19 23 07.426642 -22 06 33.89055
 2018-Nov-23 13:48  m  19 23 07.431130 -22 06 33.88563
 2018-Nov-23 13:49  m  19 23 07.435619 -22 06 33.88071
 2018-Nov-23 13:50  m  19 23 07.440108 -22 06 33.87579
 2018-Nov-23 13:51  m  19 23 07.444596 -22 06 33.87088
 2018-Nov-23 13:52  m  19 23 07.449085 -22 06 33.86596
 2018-Nov-23 13:53  m  19 23 07.453574 -22 06 33.86105
 2018-Nov-23 13:54  m  19 23 07.458063 -22 06 33.85613
 2018-Nov-23 13:55  m  19 23 07.462551 -22 06 33.85122
 2018-Nov-23 13:56  m  19 23 07.467040 -22 06 33.84631
 2018-Nov-23 13:57  m  19 23 07.471529 -22 06 33.84140
 2018-Nov-23 13:58  m  19 23 07.476018 -22 06 33.83650
 2018-Nov-23 13:59  m  19 23 07.480506 -22 06 33.83159
 2018-Nov-23 14:00  m  19 23 07.484995 -22 06 33.82669
 2018-Nov-23 14:01  m  19 23 07.489484 -22 06 33.82179
 2018-Nov-23 14:02  m  19 23 07.493973 -22 06 33.81689
 2018-Nov-23 14:03  m  19 23 07.498462 -22 06 33.81199
 2018-Nov-23 14:04  m  19 23 07.502951 -22 06 33.80709
 2018-Nov-23 14:05  m  19 23 07.507440 -22 06 33.80220
 2018-Nov-23 14:06  m  19 23 07.511928 -22 06 33.79731
 2018-Nov-23 14:07  m  19 23 07.516417 -22 06 33.79241
 2018-Nov-23 14:08  m  19 23 07.520906 -22 06 33.78752
 2018-Nov-23 14:09  m  19 23 07.525395 -22 06 33.78264
 2018-Nov-23 14:10  m  19 23 07.529884 -22 06 33.77775
 2018-Nov-23 14:11  m  19 23 07.534373 -22 06 33.77286
 2018-Nov-23 14:12  m  19 23 07.538862 -22 06 33.76798
 2018-Nov-23 14:13  m  19 23 07.543350 -22 06 33.76310
 2018-Nov-23 14:14  m  19 23 07.547839 -22 06 33.75822
 2018-Nov-23 14:15  m  19 23 07.552328 -22 06 33.75334
 2018-Nov-23 14:16  m  19 23 07.556817 -22 06 33.74846
 2018-Nov-23 14:17  m  19 23 07.561306 -22 06 33.74358
 2018-Nov-23 14:18  m  19 23 07.565794 -22 06 33.73871
 2018-Nov-23 14:19  m  19 23 07.570283 -22 06 33.73384
 2018-Nov-23 14:20  m  19 23 07.574772 -22 06 33.72896
 2018-Nov-23 14:21  m  19 23 07.579261 -22 06 33.72409
 2018-Nov-23 14:22  m  19 23 07.583749 -22 06 33.71923
 2018-Nov-23 14:23  m  19 23 07.588238 -22 06 33.71436
 2018-Nov-23 14:24  m  19 23 07.592727 -22 06 33.70949
 2018-Nov-23 14:25  m  19 23 07.597215 -22 06 33.70463
 2018-Nov-23 14:26  m  19 23 07.601704 -22 06 33.69977
 2018-Nov-23 14:27  m  19 23 07.606192 -22 06 33.69491
 2018-Nov-23 14:28  m  19 23 07.610681 -22 06 33.69005
 2018-Nov-23 14:29  m  19 23 07.615169 -22 06 33.68519
 2018-Nov-23 14:30  m  19 23 07.619658 -22 06 33.68034
 2018-Nov-23 14:31  m  19 23 07.624146 -22 06 33.67548
 2018-Nov-23 14:32  m  19 23 07.628635 -22 06 33.67063
 2018-Nov-23 14:33  m  19 23 07.633123 -22 06 33.66578
 2018-Nov-23 14:34  m  19 23 07.637612 -22 06 33.66093
 2018-Nov-23 14:35  m  19 23 07.642100 -22 06 33.65608
 2018-Nov-23 14:36  m  19 23 07.646588 -22 06 33.65124
 2018-Nov-23 14:37  m  19 23 07.651076 -22 06 33.64639
 2018-Nov-23 14:38  m  19 23 07.655565 -22 06 33.64155
 2018-Nov-23 14:39  m  19 23 07.660053 -22 06 33.63671
 2018-Nov-23 14:40  m  19 23 07.664541 -22 06 33.63187
 2018-Nov-23 14:41  m  19 23 07.669029 -22 06 33.62703
 2018-Nov-23 14:42  m  19 23 07.673517 -22 06 33.62219
 2018-Nov-23 14:43  m  19 23 07.678005 -22 06 33.61735
 2018-Nov-23 14:44  m  19 23 07.682493 -22 06 33.61252
 2018-Nov-23 14:45  m  19 23 07.686980 -22 06 33.60769
 2018-Nov-23 14:46  m  19 23 07.691468 -22 06 33.60286
 2018-Nov-23 14:47  m  19 23 07.695956 -22 06 33.59803
 2018-Nov-23 14:48  m  19 23 07.700444 -22 06 33.59320
 2018-Nov-23 14:49  m  19 23 07.704931 -22 06 33.58837
 2018-Nov-23 14:50  m  19 23 07.709419 -22 06 33.58355
 2018-Nov-23 14:51  m  19 23 07.713906 -22 06 33.57872
 2018-Nov-23 14:52  m  19 23 07.718394 -22 06 33.57390
 2018-Nov-23 14:53  m  19 23 07.722881 -22 06 33.56908
 2018-Nov-23 14:54  m  19 23 07.727368 -22 06 33.56426
 2018-Nov-23 14:55  m  19 23 07.731855 -22 06 33.55944
 2018-Nov-23 14:56  m  19 23 07.736343 -22 06 33.55463
 2018-Nov-23 14:57  m  19 23 07.740830 -22 06 33.54981
 2018-Nov-23 14:58  m  19 23 07.745317 -22 06 33.54500
 2018-Nov-23 14:59  m  19 23 07.749804 -22 06 33.54019
 2018-Nov-23 15:00  m  19 23 07.754291 -22 06 33.53538
 2018-Nov-23 15:01  m  19 23 07.758777 -22 06 33.53057
 2018-Nov-23 15:02  m  19 23 07.763264 -22 06 33.52576
 2018-Nov-23 15:03  m  19 23 07.767751 -22 06 33.52096
 2018-Nov-23 15:04  m  19 23 07.772237 -22 06 33.51615
 2018-Nov-23 15:05  m  19 23 07.776724 -22 06 33.51135
 2018-Nov-23 15:06  m  19 23 07.781210 -22 06 33.50655
 2018-Nov-23 15:07  m  19 23 07.785696 -22 06 33.50175
 2018-Nov-23 15:08  m  19 23 07.790183 -22 06 33.49695
 2018-Nov-23 15:09  m  19 23 07.794669 -22 06 33.49216
 2018-Nov-23 15:10  m  19 23 07.799155 -22 06 33.48736
 2018-Nov-23 15:11  m  19 23 07.803641 -22 06 33.48257
 2018-Nov-23 15:12  m  19 23 07.808127 -22 06 33.47777
 2018-Nov-23 15:13  m  19 23 07.812613 -22 06 33.47298
 2018-Nov-23 15:14  m  19 23 07.817098 -22 06 33.46819
 2018-Nov-23 15:15  m  19 23 07.821584 -22 06 33.46341
 2018-Nov-23 15:16  m  19 23 07.826069 -22 06 33.45862
 2018-Nov-23 15:17  m  19 23 07.830555 -22 06 33.45383
 2018-Nov-23 15:18  m  19 23 07.835040 -22 06 33.44905
 2018-Nov-23 15:19 Am  19 23 07.839525 -22 06 33.44427
 2018-Nov-23 15:20 Am  19 23 07.844010 -22 06 33.43949
 2018-Nov-23 15:21 Am  19 23 07.848495 -22 06 33.43471
 2018-Nov-23 15:22 Am  19 23 07.852980 -22 06 33.42993
 2018-Nov-23 15:23 Am  19 23 07.857465 -22 06 33.42515
 2018-Nov-23 15:24 Am  19 23 07.861950 -22 06 33.42038
 2018-Nov-23 15:25 Am  19 23 07.866434 -22 06 33.41561
 2018-Nov-23 15:26 Am  19 23 07.870919 -22 06 33.41083
 2018-Nov-23 15:27 Am  19 23 07.875403 -22 06 33.40606
 2018-Nov-23 15:28 Am  19 23 07.879888 -22 06 33.40129
 2018-Nov-23 15:29 Am  19 23 07.884372 -22 06 33.39652
 2018-Nov-23 15:30 Am  19 23 07.888856 -22 06 33.39176
 2018-Nov-23 15:31 Am  19 23 07.893340 -22 06 33.38699
 2018-Nov-23 15:32 Am  19 23 07.897823 -22 06 33.38223
 2018-Nov-23 15:33 Am  19 23 07.902307 -22 06 33.37747
 2018-Nov-23 15:34 Am  19 23 07.906791 -22 06 33.37270
 2018-Nov-23 15:35 Am  19 23 07.911274 -22 06 33.36794
